STARLINK-35467          
1 66343U 25253AA  25332.83336806  .00022879  00000+0  39474-3 0  9998
2 66343  42.9996  65.9645 0001457 275.6567 136.9990 15.50573477  4693
STARLINK-35511          
1 66344U 25253AB  25332.83336806 -.00051450  00000+0 -87657-3 0  9994
2 66344  42.9995  65.9412 0001792 271.1774 151.0673 15.50589436  4696
STARLINK-35440          
1 66345U 25253AC  25332.83336806 -.00062949  00000+0 -10751-2 0  9990
2 66345  42.9996  65.9488 0001649 275.7257 142.6826 15.50596523  4699
STARLINK-35482          
1 66346U 25253AD  25332.83336806 -.00065415  00000+0 -11178-2 0  9996
2 66346  42.9995  65.9453 0001439 270.7449 149.5822 15.50597114  4796
STARLINK-35438          
1 66347U 25253AE  25332.83336806 -.00049012  00000+0 -83457-3 0  9992
2 66347  42.9995  65.9347 0001734 272.4057 151.7589 15.50587313  4695
STARLINK-35849          
1 66348U 25254A   25332.53062936  .00141029  00000+0  94991-3 0  9995
2 66348  53.1590 345.4924 0001455  97.9515 262.1670 15.74220164  4600
STARLINK-35848          
1 66349U 25254B   25332.53028408  .00193156  00000+0  12937-2 0  9999
2 66349  53.1589 345.4898 0001749  91.2366 268.8854 15.74177897  3448
STARLINK-35829          
1 66350U 25254C   25332.59345208  .00039479  00000+0  27338-3 0  9996
2 66350  53.1589 345.1720 0000735  87.4870 272.6234 15.74121410  3458
STARLINK-35828          
1 66351U 25254D   25332.52962519  .00224476  00000+0  14874-2 0  9993
2 66351  53.1590 345.4844 0002368  77.4517 282.6768 15.74329384  3444
STARLINK-35850          
1 66352U 25254E   25332.52927578  .00080784  00000+0  54921-3 0  9990
2 66352  53.1590 345.4817 0001537  92.3746 267.7449 15.74247557  3443
STARLINK-35869          
1 66353U 25254F   25332.52894133  .00200868  00000+0  13403-2 0  9997
2 66353  53.1587 345.4796 0000788 116.6640 243.4460 15.74242155  3449
STARLINK-35895          
1 66354U 25254G   25332.59206611  .00193117  00000+0  12867-2 0  9994
2 66354  53.1588 345.1606 0000886 101.0940 259.0179 15.74300699  3457
STARLINK-35861          
1 66355U 25254H   25332.52826233  .00217395  00000+0  14471-2 0  9994
2 66355  53.1586 345.4749 0001246  94.8520 265.2643 15.74245455  3443
STARLINK-35851          
1 66356U 25254J   25332.52792156  .00202692  00000+0  13519-2 0  9997
2 66356  53.1586 345.4718 0000976 105.1636 254.9492 15.74246192  3449
STARLINK-35817          
1 66357U 25254K   25332.52758516  .00231092  00000+0  15349-2 0  9999
2 66357  53.1586 345.4699 0001274  88.5349 271.5817 15.74254389  3448
STARLINK-35807          
1 66358U 25254L   25332.52724628  .00228131  00000+0  15157-2 0  9994
2 66358  53.1587 345.4671 0001168  89.4366 270.6787 15.74256972  3447
STARLINK-35805          
1 66359U 25254M   25332.52691072  .00168645  00000+0  11310-2 0  9991
2 66359  53.1587 345.4653 0001293  87.4083 272.7085 15.74228135  4581
STARLINK-35823          
1 66360U 25254N   25332.58972138  .00209922  00000+0  13984-2 0  9997
2 66360  53.1586 345.1448 0001279  70.3410 289.7748 15.74251710  3454
STARLINK-35813          
1 66361U 25254P   25332.52657018  .00203017  00000+0  13538-2 0  9993
2 66361  53.1586 345.4631 0000924  88.8575 271.2551 15.74249011  3442
STARLINK-35822          
1 66362U 25254Q   25332.52555602  .00230458  00000+0  15307-2 0  9995
2 66362  53.1583 345.4560 0000680  84.5836 275.5262 15.74255901  3444
STARLINK-35806          
1 66363U 25254R   25332.52589621  .00170635  00000+0  11438-2 0  9995
2 66363  53.1585 345.4579 0001316  95.7419 264.3751 15.74231803  3449
STARLINK-35797          
1 66364U 25254S   25332.58868805  .00221187  00000+0  14675-2 0  9991
2 66364  53.1584 345.1379 0000967  62.0967 298.0151 15.74310271  3456
STARLINK-35827          
1 66365U 25254T   25332.52453465  .00259232  00000+0  17121-2 0  9999
2 66365  53.1583 345.4491 0001025  93.4295 266.6842 15.74301469  3448
STARLINK-35845          
1 66366U 25254U   25332.52488050  .00214557  00000+0  14287-2 0  9999
2 66366  53.1583 345.4506 0000959  78.2612 281.8515 15.74246229  3443
STARLINK-35846          
1 66367U 25254V   25332.52420565  .00161508  00000+0  10843-2 0  9998
2 66367  53.1582 345.4458 0001363  89.0471 271.0705 15.74226539  3446
STARLINK-34861          
1 66368U 25254W   25332.58701706  .00209535  00000+0  13960-2 0  9990
2 66368  53.1580 345.1253 0001218 100.9039 259.2118 15.74250575  3451
STARLINK-35795          
1 66369U 25254X   25332.52386585  .00163227  00000+0  10951-2 0  9993
2 66369  53.1580 345.4428 0000921 109.9002 250.2117 15.74235345  3445
STARLINK-35824          
1 66370U 25254Y   25332.58667840  .00215173  00000+0  14322-2 0  9991
2 66370  53.1580 345.1235 0001171  72.4271 287.6877 15.74254567  3455
STARLINK-35804          
1 66371U 25254Z   25332.58600188  .00241156  00000+0  15992-2 0  9998
2 66371  53.1579 345.1187 0000919 101.9638 258.1485 15.74261419  3456
STARLINK-35821          
1 66372U 25254AA  25332.58634023  .00238353  00000+0  15812-2 0  9990
2 66372  53.1582 345.1220 0001042 106.2630 253.8504 15.74260620  3454
STARLINK-35809          
1 66373U 25254AB  25332.52217683  .00219541  00000+0  14607-2 0  9993
2 66373  53.1580 345.4310 0001312  79.6413 280.4755 15.74250844  3448
STARLINK-35831          
1 66374U 25254AC  25332.58532759  .00309977  00000+0  20357-2 0  9996
2 66374  53.1580 345.1141 0000885  77.0289 283.0830 15.74281726  3452
STARLINK-35826          
1 66375U 25254AD  25332.83892574  .00264776  00000+0  17489-2 0  9998
2 66375  53.1579 343.8515 0000673 143.7726 216.3340 15.74281888  3491
SHIYAN-32 01            
1 66376U 25255A   25332.82222098  .00020494  00000+0  47934-3 0  9993
2 66376  52.9967 244.2031 0013288 358.9823   1.1152 15.42063389  3200
CZ-11 DEB               
1 66377U 25255B   25332.81378551  .00039839  00000+0  88794-3 0  9991
2 66377  52.9965 244.1501 0014030 356.6525   3.4383 15.43125737  3062
SHIYAN-32 02            
1 66378U 25255C   25332.81007888  .00056093  00000+0  12283-2 0  9994
2 66378  52.9977 244.1293 0013118   0.4593 359.6422 15.43510238  3063
SHIYAN-32 03            
1 66379U 25255D   25332.81759845  .00020462  00000+0  47248-3 0  9993
2 66379  52.9972 244.1751 0015293 359.9578   0.1422 15.42421462  3088
STARLINK-35139          
1 66380U 25257A   25332.83336806 -.02234112  00000+0 -41873-1 0  9996
2 66380  53.1589 330.3507 0000970  67.8516 286.8932 15.51693034  4207
STARLINK-35158          
1 66381U 25257B   25332.83336806 -.02241712  00000+0 -42027-1 0  9993
2 66381  53.1590 330.3463 0001226  72.2883 284.3746 15.51695487  4269
STARLINK-35639          
1 66382U 25257C   25332.83336806 -.02233092  00000+0 -41852-1 0  9991
2 66382  53.1593 330.3410 0001093  72.1375 286.4430 15.51690890  4268
STARLINK-35690          
1 66383U 25257D   25332.83336806 -.02232999  00000+0 -41858-1 0  9993
2 66383  53.1595 330.3342 0001114  73.1128 289.3039 15.51685572  4264
STARLINK-35662          
1 66384U 25257E   25332.83336806 -.02242116  00000+0 -42035-1 0  9994
2 66384  53.1591 330.3306 0001198  69.5672 294.7624 15.51696156  4266
STARLINK-35659          
1 66385U 25257F   25332.83336806 -.02230732  00000+0 -41808-1 0  9993
2 66385  53.1592 330.3385 0001124  70.5674 289.9312 15.51686995  4268
STARLINK-35651          
1 66386U 25257G   25332.83336806 -.02238351  00000+0 -41964-1 0  9992
2 66386  53.1587 330.3266 0001076  71.5661 294.6839 15.51691234  4263
STARLINK-35661          
1 66387U 25257H   25332.83336806 -.02246438  00000+0 -42133-1 0  9997
2 66387  53.1587 330.3232 0000865  75.5579 292.6076 15.51695336  4262
STARLINK-35647          
1 66388U 25257J   25332.83336806 -.02248716  00000+0 -42178-1 0  9998
2 66388  53.1587 330.3189 0000858  75.8839 294.1969 15.51697741  4268
STARLINK-35694          
1 66389U 25257K   25332.83336806 -.02243547  00000+0 -42067-1 0  9993
2 66389  53.1587 330.3137 0001228  72.3576 299.6422 15.51694744  4268
STARLINK-35665          
1 66390U 25257L   25332.83336806 -.02239767  00000+0 -41990-1 0  9998
2 66390  53.1592 330.2423 0001479  59.9124 346.5883 15.51690224  4364
STARLINK-35656          
1 66391U 25257M   25332.83336806 -.00865189  00000+0 -16899-1 0  9990
2 66391  53.1598 330.0051 0001450  71.0905  89.0087 15.49588889  4362
STARLINK-35671          
1 66392U 25257N   25332.83336806 -.02246397  00000+0 -42130-1 0  9994
2 66392  53.1592 330.3068 0000914  74.9037 300.9271 15.51696748  4266
STARLINK-35652          
1 66393U 25257P   25332.83336806 -.02251130  00000+0 -42221-1 0  9997
2 66393  53.1587 330.3103 0001233  73.2947 300.6201 15.51700089  4262
STARLINK-35672          
1 66394U 25257Q   25332.83336806 -.02246505  00000+0 -42127-1 0  9993
2 66394  53.1590 330.3019 0001242  72.2654 305.4830 15.51696864  4263
STARLINK-35681          
1 66395U 25257R   25332.83336806 -.02248360  00000+0 -42164-1 0  9996
2 66395  53.1593 330.2985 0001240  71.5573 308.1077 15.51698214  4105
STARLINK-35669          
1 66396U 25257S   25332.83336806 -.02244661  00000+0 -42091-1 0  9996
2 66396  53.1593 330.2939 0001227  70.3239 311.2594 15.51694963  4269
STARLINK-35510          
1 66397U 25257T   25332.83336806 -.02252387  00000+0 -42253-1 0  9991
2 66397  53.1594 330.2903 0000908  74.1148 309.3852 15.51699529  4266
STARLINK-35642          
1 66398U 25257U   25332.83336806 -.02253818  00000+0 -42275-1 0  9996
2 66398  53.1592 330.2854 0001264  73.9999 311.4155 15.51702007  4263
STARLINK-35657          
1 66399U 25257V   25332.83336806 -.02251430  00000+0 -42227-1 0  9992
2 66399  53.1588 330.2820 0001371  57.5221 329.8101 15.51698714  4260
STARLINK-35667          
1 66400U 25257W   25332.83336806 -.02261166  00000+0 -42422-1 0  9999
2 66400  53.1589 330.2735 0001369  62.4044 328.7585 15.51706976  4268
STARLINK-35668          
1 66401U 25257X   25332.83336806 -.02268204  00000+0 -42568-1 0  9991
2 66401  53.1588 330.2698 0001376  63.9973 329.0829 15.51710225  4268
